QIANFAN-33              
1 61566U 24185Q   25359.72958637  .00000456  00000+0  31980-3 0  9993
2 61566  88.9796  77.3632 0005026 287.6521  72.4107 13.96560798 70973
QIANFAN-34              
1 61567U 24185R   25359.71308333  .00000489  00000+0  31012-3 0  9997
2 61567  88.9771  76.9115 0003194 298.0037  62.0820 14.02317225 71173
QIANFAN-35              
1 61568U 24185S   25359.73117506  .00000836  00000+0  33142-3 0  9992
2 61568  88.9797  75.3580 0004927 228.1506 131.9269 14.27989681 72038
QIANFAN-36              
1 61569U 24185T   25359.73266900  .00000150  00000+0  19854-3 0  9999
2 61569  88.9782  79.6946 0006037  23.7369 336.4062 13.55592465 69686
QIANFAN-37              
1 62238U 24232B   25359.65751253  .00000069  00000+0  88655-4 0  9992
2 62238  89.0008  40.0257 0002573  90.0080 270.1366 13.50980198100910
QIANFAN-38              
1 62239U 24232C   25359.68217906  .00000060  00000+0  74066-4 0  9990
2 62239  89.0015  39.9399 0015691 151.7709 208.4296 13.50983343100978
QIANFAN-39              
1 62240U 24232D   25359.69154200  .00000316  00000+0  12762-3 0  9998
2 62240  89.0005  35.8281 0017474  43.0907 317.1650 14.25400163103239
QIANFAN-40              
1 62241U 24232E   25359.71509727  .00000051  00000+0  60438-4 0  9990
2 62241  89.0042  39.5246 0014499 158.6158 201.5602 13.50977962101344
